[{"OBJECT_NAME":"KUIPER-00160","OBJECT_ID":"2026-030B","EPOCH":"2026-03-09T18:20:16.137888","MEAN_MOTION":15.35623214,"ECCENTRICITY":0.00052725,"INCLINATION":51.8805,"RA_OF_ASC_NODE":218.8175,"ARG_OF_PERICENTER":54.195,"MEAN_ANOMALY":305.9525,"EPHEMERIS_TYPE":0,"CLASSIFICATION_TYPE":"U","NORAD_CAT_ID":67765,"ELEMENT_SET_NO":999,"REV_AT_EPOCH":510,"BSTAR":0.0010485695,"MEAN_MOTION_DOT":0.00036682,"MEAN_MOTION_DDOT":0},{"OBJECT_NAME":"SL-3 R\/B","OBJECT_ID":"1983-075B","EPOCH":"2026-03-09T22:44:04.814016","MEAN_MOTION":15.38425255,"ECCENTRICITY":0.00201513,"INCLINATION":97.6147,"RA_OF_ASC_NODE":73.5342,"ARG_OF_PERICENTER":224.8963,"MEAN_ANOMALY":135.0652,"EPHEMERIS_TYPE":0,"CLASSIFICATION_TYPE":"U","NORAD_CAT_ID":14208,"ELEMENT_SET_NO":999,"REV_AT_EPOCH":33019,"BSTAR":0.0003432682,"MEAN_MOTION_DOT":0.00013017,"MEAN_MOTION_DDOT":0}]
